     3.02           NAVIGATION DATA     M: Mixed            RINEX VERSION / TYPE
END OF FILE                                                 COMMENT             
                                                            END OF HEADER       
G16 2016 03 03 23 59 44.0-3.500701859593E-05 2.955857780762E-12 0.000000000000E+00
     1.300000000000E+01 4.481250000000E+01 4.103385208179E-09 2.068669374417E+00
     2.367421984673E-06 8.631645818241E-03 4.772096872330E-06 5.153718172073E+03
     4.319840000000E+05-1.881271600723E-07-2.688119687546E+00 1.434236764908E-07
     9.910251737535E-01 3.065625000000E+02 3.347164157908E-01-7.993904406777E-09
     9.178953768839E-11 0.000000000000E+00 1.886000000000E+03 0.000000000000E+00
     2.000000000000E+00 0.000000000000E+00-1.024454832077E-08 1.300000000000E+01
     4.280994300000E+05 4.000000000000E+00                                      
G26 2016 03 03 23 59 44.0-2.785976976156E-04-1.512034941697E-11 0.000000000000E+00
     5.000000000000E+00 5.475000000000E+01 4.764841331910E-09 2.925514443831E+00
     2.870336174965E-06 9.138737805188E-04 4.591420292854E-06 5.153719345093E+03
     4.319840000000E+05-2.980232238770E-08-2.764244440894E+00 5.401670932770E-08
     9.608300340390E-01 2.920000000000E+02-3.599101633601E-02-8.297845638578E-09
     1.332198348551E-10 0.000000000000E+00 1.886000000000E+03 0.000000000000E+00
     2.000000000000E+00 0.000000000000E+00 6.984919309616E-09 5.000000000000E+00
     4.280994300000E+05 4.000000000000E+00                                      
G04 2016 03 04 00 00  0.0-2.516247332096E-04-9.094947017729E-13 0.000000000000E+00
     6.300000000000E+01 5.087500000000E+01 5.506300788101E-09 2.189043648740E+00
     2.518296241760E-06 8.210032014176E-03 4.835426807404E-06 5.153619216919E+03
     4.320000000000E+05-1.322478055954E-07-2.735513854801E+00-1.098960638046E-07
     9.835873251944E-01 2.987187500000E+02 8.573382044689E-01-8.001047561461E-09
     1.307197307158E-10 1.000000000000E+00 1.886000000000E+03 0.000000000000E+00
     2.800000000000E+00 3.400000000000E+01-1.909211277962E-08 6.300000000000E+01
     4.280994300000E+05 4.000000000000E+00                                      
G10 2016 03 04 00 00  0.0 3.432715311646E-05-6.934897101019E-12 0.000000000000E+00
     5.400000000000E+01 1.806250000000E+01 4.649836541499E-09 3.091252239544E+00
     1.059845089912E-06 1.220915117301E-03 7.726252079010E-06 5.153680919647E+03
     4.320000000000E+05 2.793967723846E-08 3.799681863315E-01-5.587935447693E-09
     9.598622420466E-01 2.308750000000E+02-2.862095100355E+00-8.030691653399E-09
     3.385855320179E-10 0.000000000000E+00 1.886000000000E+03 0.000000000000E+00
     2.000000000000E+00 0.000000000000E+00 2.328306436539E-09 5.400000000000E+01
     4.280994300000E+05 4.000000000000E+00                                      
G18 2016 03 04 00 00  0.0 4.898053593934E-04 3.979039320257E-12 0.000000000000E+00
     4.100000000000E+01 1.306250000000E+01 5.272005314468E-09 2.677009303108E+00
     5.997717380524E-07 1.674433820881E-02 7.366761565208E-06 5.153662002563E+03
     4.320000000000E+05 1.341104507446E-07 3.540193404294E-01-1.471489667892E-07
     9.253496785170E-01 2.155625000000E+02-1.908497164225E+00-8.099265938365E-09
     2.989410235221E-10 0.000000000000E+00 1.886000000000E+03 0.000000000000E+00
     2.000000000000E+00 0.000000000000E+00-1.117587089539E-08 4.100000000000E+01
     4.280994300000E+05 4.000000000000E+00                                      
G20 2016 03 04 00 00  0.0 3.968998789787E-04 2.614797267597E-12 0.000000000000E+00
     4.100000000000E+01 1.003125000000E+01 5.406653780260E-09 3.571201854777E-01
     6.202608346939E-07 4.822354065254E-03 7.472932338715E-06 5.153695232391E+03
     4.320000000000E+05-1.452863216400E-07 3.021010873115E-01-5.029141902924E-08
     9.266197854563E-01 2.197500000000E+02 1.341998089687E+00-8.476067347941E-09
     2.707255625206E-10 0.000000000000E+00 1.886000000000E+03 0.000000000000E+00
     2.000000000000E+00 0.000000000000E+00-8.381903171539E-09 4.100000000000E+01
     4.280994300000E+05 4.000000000000E+00                                      
G21 2016 03 04 00 00  0.0-5.132509395480E-04-1.705302565824E-12 0.000000000000E+00
     5.800000000000E+01-6.034375000000E+01 4.668408743677E-09-2.737139330874E+00
    -3.207474946976E-06 2.323813282419E-02 9.853392839432E-06 5.153665277481E+03
     4.320000000000E+05 3.464519977570E-07-6.878834411293E-01-1.490116119385E-08
     9.359032982776E-01 1.692187500000E+02-1.821896401847E+00-7.734965049485E-09
     2.478674675321E-10 0.000000000000E+00 1.886000000000E+03 0.000000000000E+00
     2.000000000000E+00 0.000000000000E+00-1.164153218269E-08 5.800000000000E+01
     4.280994300000E+05 4.000000000000E+00                                      
G27 2016 03 04 00 00  0.0 6.853882223368E-05 3.637978807092E-12 0.000000000000E+00
     1.100000000000E+01-6.950000000000E+01 4.457328522767E-09 1.162448275814E+00
    -3.429129719734E-06 3.295165603049E-03 4.975125193596E-06 5.153636806488E+03
     4.320000000000E+05 2.607703208923E-08-1.714859392194E+00 1.676380634308E-08
     9.701422127401E-01 2.860312500000E+02 2.083567599011E-01-8.212484940105E-09
    -2.246522148093E-10 0.000000000000E+00 1.886000000000E+03 0.000000000000E+00
     2.000000000000E+00 0.000000000000E+00 1.396983861923E-09 1.100000000000E+01
     4.280994300000E+05 4.000000000000E+00                                      
G29 2016 03 04 00 00  0.0 6.552864797413E-04 6.821210263297E-13 0.000000000000E+00
     6.900000000000E+01-8.484375000000E+01 4.182317067436E-09-2.625781431753E+00
    -4.524365067482E-06 1.053854008205E-03 5.755573511124E-06 5.153610511780E+03
     4.320000000000E+05-1.862645149231E-09-1.655782879032E+00 3.166496753693E-08
     9.761341189213E-01 2.751250000000E+02-5.230639732226E-01-8.059621429869E-09
    -2.521533603424E-10 0.000000000000E+00 1.886000000000E+03 0.000000000000E+00
     2.000000000000E+00 0.000000000000E+00-1.024454832077E-08 6.900000000000E+01
     4.280994300000E+05 4.000000000000E+00                                      
